0 METEOR 2-8 DEB
1 36330U 82025Q   13283.80143493  .00001282  00000-0  79018-3 0  1950
2 36330 082.5420 101.9340 0014771 309.0480 050.9436 14.04763744573394
0 METEOR 2-8 DEB
1 36330U 82025Q   13286.79296786  .00001311  00000-0  80832-3 0  1965
2 36330 082.5428 099.4760 0014099 301.1818 058.8181 14.04772286573812
0 METEOR 2-8 DEB
1 36330U 82025Q   13289.78448018  .00001362  00000-0  83985-3 0  1973
2 36330 082.5433 097.0162 0013757 293.3681 066.6239 14.04781288574238
0 METEOR 2-8 DEB
1 36330U 82025Q   13291.77880990  .00001430  00000-0  88248-3 0  1988
2 36330 082.5439 095.3795 0013253 289.6039 070.4297 14.04788990574518
0 METEOR 2-8 DEB
1 36330U 82025Q   13292.77596046  .00001506  00000-0  92913-3 0  1994
2 36330 082.5421 094.5566 0013850 289.9202 070.1124 14.04794341574652
0 METEOR 2-8 DEB
1 36330U 82025Q   13295.76741687  .00001626  00000-0  10040-2 0  2005
2 36330 082.5491 092.1063 0011909 268.6861 091.3885 14.04806949575077
